***************************************************************************************
 Date__(UT)__HR:MN Date_________JDUT     R.A.___(ICRF/J2000.0)___DEC dRA*cosD d(DEC)/dt
***************************************************************************************
$$SOE
 2026-Jan-28 07:48 2461068.825000000     00 58 16.3097  11 02 33.978  51.94355  30.25021
 2026-Jan-28 07:49 2461068.825694445     00 58 16.3685  11 02 34.483  51.94657  30.25165
 2026-Jan-28 07:50 2461068.826388889     00 58 16.4273  11 02 34.988  51.94957  30.25309
 2026-Jan-28 07:51 2461068.827083333     00 58 16.4861  11 02 35.492  51.95254  30.25454
 2026-Jan-28 07:52 2461068.827777778     00 58 16.5449  11 02 35.997  51.95548  30.25598
 2026-Jan-28 07:53 2461068.828472222     00 58 16.6037  11 02 36.502  51.95840  30.25743
 2026-Jan-28 07:54 2461068.829166667     00 58 16.6625  11 02 37.007  51.96130  30.25888
 2026-Jan-28 07:55 2461068.829861111     00 58 16.7213  11 02 37.512  51.96416  30.26033
 2026-Jan-28 07:56 2461068.830555555     00 58 16.7801  11 02 38.017  51.96701  30.26178
 2026-Jan-28 07:57 2461068.831250000     00 58 16.8389  11 02 38.521  51.96982  30.26324
 2026-Jan-28 07:58 2461068.831944444     00 58 16.8977  11 02 39.026  51.97261  30.26469
 2026-Jan-28 07:59 2461068.832638889     00 58 16.9566  11 02 39.531  51.97538  30.26615
 2026-Jan-28 08:00 2461068.833333334     00 58 17.0154  11 02 40.036  51.97812  30.26761
 2026-Jan-28 08:01 2461068.834027778     00 58 17.0742  11 02 40.541  51.98083  30.26908
 2026-Jan-28 08:02 2461068.834722222     00 58 17.1330  11 02 41.046  51.98352  30.27054
 2026-Jan-28 08:03 2461068.835416667     00 58 17.1919  11 02 41.551  51.98618  30.27200
 2026-Jan-28 08:04 2461068.836111111     00 58 17.2507  11 02 42.057  51.98882  30.27347
 2026-Jan-28 08:05 2461068.836805556     00 58 17.3095  11 02 42.562  51.99143  30.27494
 2026-Jan-28 08:06 2461068.837500000     00 58 17.3684  11 02 43.067  51.99401  30.27641
 2026-Jan-28 08:07 2461068.838194444     00 58 17.4272  11 02 43.572  51.99657  30.27788
 2026-Jan-28 08:08 2461068.838888889     00 58 17.4861  11 02 44.077  51.99910  30.27935
 2026-Jan-28 08:09 2461068.839583333     00 58 17.5449  11 02 44.582  52.00161  30.28083
 2026-Jan-28 08:10 2461068.840277778     00 58 17.6038  11 02 45.088  52.00409  30.28230
 2026-Jan-28 08:11 2461068.840972222     00 58 17.6626  11 02 45.593  52.00655  30.28378
 2026-Jan-28 08:12 2461068.841666667     00 58 17.7215  11 02 46.098  52.00897  30.28526
 2026-Jan-28 08:13 2461068.842361111     00 58 17.7803  11 02 46.603  52.01137  30.28674
 2026-Jan-28 08:14 2461068.843055556     00 58 17.8392  11 02 47.109  52.01375  30.28822
 2026-Jan-28 08:15 2461068.843750000     00 58 17.8981  11 02 47.614  52.01610  30.28970
 2026-Jan-28 08:16 2461068.844444444     00 58 17.9569  11 02 48.119  52.01842  30.29119
 2026-Jan-28 08:17 2461068.845138889     00 58 18.0158  11 02 48.625  52.02072  30.29267
 2026-Jan-28 08:18 2461068.845833333     00 58 18.0747  11 02 49.130  52.02299  30.29416
 2026-Jan-28 08:19 2461068.846527778     00 58 18.1335  11 02 49.636  52.02523  30.29565
 2026-Jan-28 08:20 2461068.847222222     00 58 18.1924  11 02 50.141  52.02745  30.29714
 2026-Jan-28 08:21 2461068.847916667     00 58 18.2513  11 02 50.647  52.02964  30.29863
 2026-Jan-28 08:22 2461068.848611111     00 58 18.3102  11 02 51.152  52.03181  30.30012
 2026-Jan-28 08:23 2461068.849305556     00 58 18.3691  11 02 51.658  52.03394  30.30161
 2026-Jan-28 08:24 2461068.850000000     00 58 18.4280  11 02 52.163  52.03606  30.30311
 2026-Jan-28 08:25 2461068.850694445     00 58 18.4868  11 02 52.669  52.03814  30.30460
 2026-Jan-28 08:26 2461068.851388889     00 58 18.5457  11 02 53.175  52.04020  30.30610
 2026-Jan-28 08:27 2461068.852083333     00 58 18.6046  11 02 53.680  52.04223  30.30760
 2026-Jan-28 08:28 2461068.852777778     00 58 18.6635  11 02 54.186  52.04424  30.30909
 2026-Jan-28 08:29 2461068.853472222     00 58 18.7224  11 02 54.692  52.04621  30.31059
 2026-Jan-28 08:30 2461068.854166667     00 58 18.7813  11 02 55.197  52.04817  30.31210
 2026-Jan-28 08:31 2461068.854861111     00 58 18.8402  11 02 55.703  52.05009  30.31360
 2026-Jan-28 08:32 2461068.855555556     00 58 18.8991  11 02 56.209  52.05199  30.31510
 2026-Jan-28 08:33 2461068.856250000     00 58 18.9580  11 02 56.715  52.05386  30.31660
 2026-Jan-28 08:34 2461068.856944445     00 58 19.0170  11 02 57.220  52.05571  30.31811
 2026-Jan-28 08:35 2461068.857638889     00 58 19.0759  11 02 57.726  52.05753  30.31961
 2026-Jan-28 08:36 2461068.858333333     00 58 19.1348  11 02 58.232  52.05932  30.32112
 2026-Jan-28 08:37 2461068.859027778     00 58 19.1937  11 02 58.738  52.06108  30.32263
 2026-Jan-28 08:38 2461068.859722222     00 58 19.2526  11 02 59.244  52.06282  30.32413
 2026-Jan-28 08:39 2461068.860416667     00 58 19.3115  11 02 59.750  52.06453  30.32564
 2026-Jan-28 08:40 2461068.861111111     00 58 19.3705  11 03 00.256  52.06622  30.32715
 2026-Jan-28 08:41 2461068.861805555     00 58 19.4294  11 03 00.762  52.06788  30.32866
 2026-Jan-28 08:42 2461068.862500000     00 58 19.4883  11 03 01.268  52.06951  30.33017
 2026-Jan-28 08:43 2461068.863194444     00 58 19.5472  11 03 01.774  52.07111  30.33169
 2026-Jan-28 08:44 2461068.863888889     00 58 19.6062  11 03 02.280  52.07269  30.33320
 2026-Jan-28 08:45 2461068.864583334     00 58 19.6651  11 03 02.786  52.07424  30.33471
 2026-Jan-28 08:46 2461068.865277778     00 58 19.7240  11 03 03.292  52.07576  30.33623
 2026-Jan-28 08:47 2461068.865972222     00 58 19.7830  11 03 03.798  52.07726  30.33774
 2026-Jan-28 08:48 2461068.866666667     00 58 19.8419  11 03 04.305  52.07873  30.33926
 2026-Jan-28 08:49 2461068.867361111     00 58 19.9009  11 03 04.811  52.08017  30.34077
 2026-Jan-28 08:50 2461068.868055556     00 58 19.9598  11 03 05.317  52.08158  30.34229
 2026-Jan-28 08:51 2461068.868750000     00 58 20.0187  11 03 05.823  52.08297  30.34381
 2026-Jan-28 08:52 2461068.869444444     00 58 20.0777  11 03 06.330  52.08433  30.34532
 2026-Jan-28 08:53 2461068.870138889     00 58 20.1366  11 03 06.836  52.08567  30.34684
 2026-Jan-28 08:54 2461068.870833333     00 58 20.1956  11 03 07.342  52.08697  30.34836
 2026-Jan-28 08:55 2461068.871527778     00 58 20.2545  11 03 07.849  52.08825  30.34988
 2026-Jan-28 08:56 2461068.872222222     00 58 20.3135  11 03 08.355  52.08951  30.35140
 2026-Jan-28 08:57 2461068.872916667     00 58 20.3724  11 03 08.861  52.09073  30.35292
 2026-Jan-28 08:58 2461068.873611111     00 58 20.4314  11 03 09.368  52.09193  30.35444
 2026-Jan-28 08:59 2461068.874305556     00 58 20.4903  11 03 09.874  52.09310  30.35596
 2026-Jan-28 09:00 2461068.875000000     00 58 20.5493  11 03 10.381  52.09425  30.35748
 2026-Jan-28 09:01 2461068.875694444     00 58 20.6082  11 03 10.887  52.09537  30.35900
 2026-Jan-28 09:02 2461068.876388889     00 58 20.6672  11 03 11.394  52.09646  30.36052
 2026-Jan-28 09:03 2461068.877083333     00 58 20.7262  11 03 11.900  52.09752  30.36205
 2026-Jan-28 09:04 2461068.877777778     00 58 20.7851  11 03 12.407  52.09856  30.36357
 2026-Jan-28 09:05 2461068.878472222     00 58 20.8441  11 03 12.914  52.09957  30.36509
 2026-Jan-28 09:06 2461068.879166667     00 58 20.9030  11 03 13.420  52.10055  30.36661
 2026-Jan-28 09:07 2461068.879861111     00 58 20.9620  11 03 13.927  52.10150  30.36813
 2026-Jan-28 09:08 2461068.880555556     00 58 21.0210  11 03 14.433  52.10243  30.36966
 2026-Jan-28 09:09 2461068.881250000     00 58 21.0799  11 03 14.940  52.10333  30.37118
 2026-Jan-28 09:10 2461068.881944445     00 58 21.1389  11 03 15.447  52.10421  30.37270
 2026-Jan-28 09:11 2461068.882638889     00 58 21.1979  11 03 15.954  52.10505  30.37423
 2026-Jan-28 09:12 2461068.883333333     00 58 21.2568  11 03 16.460  52.10587  30.37575
 2026-Jan-28 09:13 2461068.884027778     00 58 21.3158  11 03 16.967  52.10666  30.37727
 2026-Jan-28 09:14 2461068.884722222     00 58 21.3748  11 03 17.474  52.10743  30.37880
 2026-Jan-28 09:15 2461068.885416667     00 58 21.4337  11 03 17.981  52.10817  30.38032
 2026-Jan-28 09:16 2461068.886111111     00 58 21.4927  11 03 18.488  52.10888  30.38184
 2026-Jan-28 09:17 2461068.886805556     00 58 21.5517  11 03 18.995  52.10956  30.38337
 2026-Jan-28 09:18 2461068.887500000     00 58 21.6107  11 03 19.502  52.11022  30.38489
 2026-Jan-28 09:19 2461068.888194445     00 58 21.6696  11 03 20.009  52.11085  30.38641
 2026-Jan-28 09:20 2461068.888888889     00 58 21.7286  11 03 20.516  52.11145  30.38794
 2026-Jan-28 09:21 2461068.889583333     00 58 21.7876  11 03 21.023  52.11203  30.38946
 2026-Jan-28 09:22 2461068.890277778     00 58 21.8466  11 03 21.530  52.11257  30.39098
 2026-Jan-28 09:23 2461068.890972222     00 58 21.9055  11 03 22.037  52.11310  30.39250
 2026-Jan-28 09:24 2461068.891666667     00 58 21.9645  11 03 22.544  52.11359  30.39403
 2026-Jan-28 09:25 2461068.892361111     00 58 22.0235  11 03 23.051  52.11406  30.39555
 2026-Jan-28 09:26 2461068.893055555     00 58 22.0825  11 03 23.558  52.11450  30.39707
 2026-Jan-28 09:27 2461068.893750000     00 58 22.1415  11 03 24.065  52.11491  30.39859
 2026-Jan-28 09:28 2461068.894444444     00 58 22.2004  11 03 24.573  52.11530  30.40011
 2026-Jan-28 09:29 2461068.895138889     00 58 22.2594  11 03 25.080  52.11565  30.40163
 2026-Jan-28 09:30 2461068.895833334     00 58 22.3184  11 03 25.587  52.11599  30.40315
 2026-Jan-28 09:31 2461068.896527778     00 58 22.3774  11 03 26.094  52.11629  30.40467
 2026-Jan-28 09:32 2461068.897222222     00 58 22.4364  11 03 26.602  52.11657  30.40619
 2026-Jan-28 09:33 2461068.897916667     00 58 22.4953  11 03 27.109  52.11682  30.40771
 2026-Jan-28 09:34 2461068.898611111     00 58 22.5543  11 03 27.616  52.11704  30.40923
 2026-Jan-28 09:35 2461068.899305556     00 58 22.6133  11 03 28.124  52.11724  30.41075
 2026-Jan-28 09:36 2461068.900000000     00 58 22.6723  11 03 28.631  52.11741  30.41227
$$EOE
